{
  "centers": [
    {
      "center_id": 1274,
      "name": "CGHS Hari Nagar PHC",
      "district_name": "West Delhi",
      "state_name": "Delhi",
      "location": "CGHS Hari Nagar",
      "pincode": "110064",
      "block_name": "Not Applicable",
      "lat": "28.00000000",
      "long": "77.00000000"
    },
    {
      "center_id": 1280,
      "name": "ESI Dispensary Tilak Vihar PHC",
      "district_name": "West Delhi",
      "state_name": "Delhi",
      "location": "ESI Dispensary Tilak Nagar, Tilak Nagar",
      "pincode": "110018",
      "block_name": "Not Applicable",
      "lat": "28.00000000",
      "long": "77.00000000"
    },
    {
      "center_id": 1285,
      "name": "MCW Ramesh Nagar PHC",
      "district_name": "West Delhi",
      "state_name": "Delhi",
      "location": "M And CW CENTER RAMESH NAGAR",
      "pincode": "110015",
      "block_name": "Not Applicable",
      "lat": "28.00000000",
      "long": "77.00000000"
    },
    {
      "center_id": 693695,
      "name": "SBV Moti Nagar Site 2",
      "district_name": "West Delhi",
      "state_name": "Delhi",
      "location": "Moti Nagar",
      "pincode": "110015",
      "block_name": "Not Applicable",
      "lat": "28.00000000",
      "long": "77.00000000"
    },
    {
      "center_id": 693995,
      "name": "DDA Transit Camp",
      "district_name": "West Delhi",
      "state_name": "Delhi",
      "location": "Gali No.10, Anand Parbat (outreach Site)",
      "pincode": "110008",
      "block_name": "Not Applicable",
      "lat": "28.00000000",
      "long": "77.00000000"
    },
    {
      "center_id": 694003,
      "name": "Recreational Centre 12 -Bloc",
      "district_name": "West Delhi",
      "state_name": "Delhi",
      "location": "Recreational Centre 12 -Bloc, Tilak Nagar",
      "pincode": "110018",
      "block_name": "Not Applicable",
      "lat": "28.00000000",
      "long": "77.00000000"
    },
    {
      "center_id": 7982,
      "name": "ESI Nia I Karampura PHC",
      "district_name": "West Delhi",
      "state_name": "Delhi",
      "location": "Near Police Chowki Karampura",
      "pincode": "110015",
      "block_name": "Not Applicable",
      "lat": "28.00000000",
      "long": "77.00000000"
    },
    {
      "center_id": 11877,
      "name": "Rajesh AWC Dhanonta",
      "district_name": "Mahendragarh",
      "state_name": "Haryana",
      "location": "Near Govt School Dhanota",
      "pincode": "123001",
      "block_name": "Dochana",
      "lat": "28.00562400",
      "long": "76.99830700"
    },
    {
      "center_id": 707032,
      "name": "Saras Dairy Bhawani Top Alwar",
      "district_name": "Alwar",
      "state_name": "Rajasthan",
      "location": "Saras Dairy Bhawani Top Alwar",
      "pincode": "301001",
      "block_name": "Alwar Urban",
      "lat": "27.98746000",
      "long": "76.98745000"
    },
    {
      "center_id": 628575,
      "name": "Akera Sub Center",
      "district_name": "Nuh",
      "state_name": "Haryana",
      "location": "Akera Sub Center",
      "pincode": "122107",
      "block_name": "Nuh",
      "lat": "28.01686723",
      "long": "77.00023395"
    },
    {
      "center_id": 587456,
      "name": "1 Secretariate Nuh",
      "district_name": "Nuh",
      "state_name": "Haryana",
      "location": "Mini Secretariate Nuh",
      "pincode": "122107",
      "block_name": "Nuh",
      "lat": "28.03548000",
      "long": "77.01319100"
    },
    {
      "center_id": 610185,
      "name": "Dr R B Yadav Hospital",
      "district_name": "Rewari",
      "state_name": "Haryana",
      "location": "Circular Road, Near Dharuhera Chungi",
      "pincode": "123401",
      "block_name": "Rewari",
      "lat": "28.03548000",
      "long": "77.01319100"
    },
    {
      "center_id": 617751,
      "name": "2 Secretariat NUH",
      "district_name": "Nuh",
      "state_name": "Haryana",
      "location": "Mini Secretariat NUH- 2 ,Nuh To Palwal Road",
      "pincode": "122107",
      "block_name": "Nuh",
      "lat": "28.03548000",
      "long": "77.01319100"
    },
    {
      "center_id": 628291,
      "name": "Kirshana Nagar Rewari",
      "district_name": "Rewari",
      "state_name": "Haryana",
      "location": "Rewari",
      "pincode": "123401",
      "block_name": "Rewari",
      "lat": "28.03548000",
      "long": "77.01319100"
    },
    {
      "center_id": 628295,
      "name": "Kayastwada",
      "district_name": "Rewari",
      "state_name": "Haryana",
      "location": "Rewari",
      "pincode": "123401",
      "block_name": "Rewari",
      "lat": "28.03548000",
      "long": "77.01319100"
    },
    {
      "center_id": 641535,
      "name": "Govt School Malahera (Masani)",
      "district_name": "Rewari",
      "state_name": "Haryana",
      "location": "Malahera Village",
      "pincode": "123106",
      "block_name": "Meerpur",
      "lat": "28.03548000",
      "long": "77.01319100"
    },
    {
      "center_id": 641554,
      "name": "Vill Teekla (Bawal)",
      "district_name": "Rewari",
      "state_name": "Haryana",
      "location": "Village Teekla",
      "pincode": "122502",
      "block_name": "Bawal",
      "lat": "28.03548000",
      "long": "77.01319100"
    },
    {
      "center_id": 641668,
      "name": "Bhatsana (Dharuhera)",
      "district_name": "Rewari",
      "state_name": "Haryana",
      "location": "Dharuhera",
      "pincode": "123106",
      "block_name": "Rewari",
      "lat": "28.03548000",
      "long": "77.01319100"
    },
    {
      "center_id": 641670,
      "name": "Hari Dass Mandir NRP Bass",
      "district_name": "Rewari",
      "state_name": "Haryana",
      "location": "Hari Dass Mandir NRP Bass",
      "pincode": "123106",
      "block_name": "Rewari",
      "lat": "28.03548000",
      "long": "77.01319100"
    },
    {
      "center_id": 641729,
      "name": "Saini Dharmshala Qutubpur",
      "district_name": "Rewari",
      "state_name": "Haryana",
      "location": "Saini Dharmshala Qutubpur",
      "pincode": "123401",
      "block_name": "Rewari",
      "lat": "28.03548000",
      "long": "77.01319100"
    },
    {
      "center_id": 641731,
      "name": "Yadav Dharamshala (Qutubpur )",
      "district_name": "Rewari",
      "state_name": "Haryana",
      "location": "Yadav Dharamshala (Qutubpur )",
      "pincode": "123401",
      "block_name": "Rewari",
      "lat": "28.03548000",
      "long": "77.01319100"
    },
    {
      "center_id": 641801,
      "name": "Ghisha Ki Dhani (Rajeev Nagar)",
      "district_name": "Rewari",
      "state_name": "Haryana",
      "location": "Ghisha Ki Dhani (Rajeev Nagar)",
      "pincode": "123401",
      "block_name": "Rewari",
      "lat": "28.03548000",
      "long": "77.01319100"
    },
    {
      "center_id": 642981,
      "name": "Phalawas (Gurawara)",
      "district_name": "Rewari",
      "state_name": "Haryana",
      "location": "Phalawas (Gurawara)",
      "pincode": "123035",
      "block_name": "Gurawara",
      "lat": "28.03548000",
      "long": "77.01319100"
    },
    {
      "center_id": 650420,
      "name": "Azad Nagar Rajeev NG",
      "district_name": "Rewari",
      "state_name": "Haryana",
      "location": "Azad Nagar Rajeev NG",
      "pincode": "123401",
      "block_name": "Rewari",
      "lat": "28.03548000",
      "long": "77.01319100"
    },
    {
      "center_id": 650433,
      "name": "Gomati School Qutubpur",
      "district_name": "Rewari",
      "state_name": "Haryana",
      "location": "Gomati School Qutubpur",
      "pincode": "123401",
      "block_name": "Rewari",
      "lat": "28.03548000",
      "long": "77.01319100"
    },
    {
      "center_id": 650441,
      "name": "Shiv Colony Qutubpur",
      "district_name": "Rewari",
      "state_name": "Haryana",
      "location": "Shiv Colony Qutubpur",
      "pincode": "123401",
      "block_name": "Rewari",
      "lat": "28.03548000",
      "long": "77.01319100"
    },
    {
      "center_id": 668330,
      "name": "Vipul GRD (Dharuhera)",
      "district_name": "Rewari",
      "state_name": "Haryana",
      "location": "Vipul GRD (Dharuhera)",
      "pincode": "123106",
      "block_name": "Rewari",
      "lat": "28.03548000",
      "long": "77.01319100"
    },
    {
      "center_id": 669359,
      "name": "SC Hansawas(Gurawara)",
      "district_name": "Rewari",
      "state_name": "Haryana",
      "location": "SC Hansawas(Gurawara)",
      "pincode": "123035",
      "block_name": "Gurawara",
      "lat": "28.03548000",
      "long": "77.01319100"
    },
    {
      "center_id": 669378,
      "name": "Vill Teju(Bawal)",
      "district_name": "Rewari",
      "state_name": "Haryana",
      "location": "Vill Teju(Bawal)",
      "pincode": "123501",
      "block_name": "Bawal",
      "lat": "28.03548000",
      "long": "77.01319100"
    },
    {
      "center_id": 669382,
      "name": "Vill Sutana (Bawal)",
      "district_name": "Rewari",
      "state_name": "Haryana",
      "location": "Vill Sutana (Bawal)",
      "pincode": "123501",
      "block_name": "Bawal",
      "lat": "28.03548000",
      "long": "77.01319100"
    },
    {
      "center_id": 669567,
      "name": "Nai Abadi (Qutubpur)",
      "district_name": "Rewari",
      "state_name": "Haryana",
      "location": "Nai Abadi (Qutubpur)",
      "pincode": "123401",
      "block_name": "Rewari",
      "lat": "28.03548000",
      "long": "77.01319100"
    },
    {
      "center_id": 669569,
      "name": "Anand Nagar (Rajeev Nagar)",
      "district_name": "Rewari",
      "state_name": "Haryana",
      "location": "Anand Nagar (Rajeev Nagar)",
      "pincode": "123401",
      "block_name": "Rewari",
      "lat": "28.03548000",
      "long": "77.01319100"
    },
    {
      "center_id": 628582,
      "name": "Malab Sub Center",
      "district_name": "Nuh",
      "state_name": "Haryana",
      "location": "Malab Sub Center",
      "pincode": "122107",
      "block_name": "Nuh",
      "lat": "28.04276027",
      "long": "77.01136845"
    },
    {
      "center_id": 544536,
      "name": "Atta Sc",
      "district_name": "Kendujhar",
      "state_name": "Odisha",
      "location": "Attaa Sainkul",
      "pincode": "758043",
      "block_name": "Ghasipura",
      "lat": "28.01000000",
      "long": "77.05000000"
    },
    {
      "center_id": 668810,
      "name": "Bharai SC Jaitipur",
      "district_name": "Shahjahanpur",
      "state_name": "Uttar Pradesh",
      "location": "Bharai SC Jaitipur",
      "pincode": "242301",
      "block_name": "Jaitipur CHC",
      "lat": "27.95290000",
      "long": "77.00000000"
    },
    {
      "center_id": 602132,
      "name": "NUH CHC- 45",
      "district_name": "Nuh",
      "state_name": "Haryana",
      "location": "NUH CHC NEAR YMD COLLEGE NUH",
      "pincode": "122107",
      "block_name": "Nuh",
      "lat": "27.98460000",
      "long": "76.94720000"
    },
    {
      "center_id": 616360,
      "name": "NUH CHC -2",
      "district_name": "Nuh",
      "state_name": "Haryana",
      "location": "NUH CHC NEAR POLICE THANA",
      "pincode": "122107",
      "block_name": "Nuh",
      "lat": "27.98460000",
      "long": "76.94720000"
    },
    {
      "center_id": 628584,
      "name": "Meoli Kalan Sub Center",
      "district_name": "Nuh",
      "state_name": "Haryana",
      "location": "Meoli Kalan Sub Center",
      "pincode": "122107",
      "block_name": "Nuh",
      "lat": "28.04197253",
      "long": "76.96390479"
    },
    {
      "center_id": 628436,
      "name": "Uleta Sub Center",
      "district_name": "Nuh",
      "state_name": "Haryana",
      "location": "Uleta Sub Center",
      "pincode": "122508",
      "block_name": "Ferozepur Jhirka",
      "lat": "27.95119361",
      "long": "76.97241428"
    },
    {
      "center_id": 602757,
      "name": "CIVIL HOSPITAL MANDIKHERA- 18",
      "district_name": "Nuh",
      "state_name": "Haryana",
      "location": "CIVIL HOSPITAL MANDIKHERA MAIN ALWER ROAD",
      "pincode": "122108",
      "block_name": "Ferozepur Jhirka",
      "lat": "27.94343000",
      "long": "77.01720000"
    },
    {
      "center_id": 606732,
      "name": "CIVIL HOSPITAL MANDIKHERA -45",
      "district_name": "Nuh",
      "state_name": "Haryana",
      "location": "Civil Hospital Gh Main Road Alwer",
      "pincode": "122108",
      "block_name": "Ferozepur Jhirka",
      "lat": "27.94343000",
      "long": "77.01720000"
    },
    {
      "center_id": 628406,
      "name": "Umra Sub Center",
      "district_name": "Nuh",
      "state_name": "Haryana",
      "location": "Umra Sub Center",
      "pincode": "122108",
      "block_name": "Ferozepur Jhirka",
      "lat": "27.97185192",
      "long": "77.05823422"
    },
    {
      "center_id": 628439,
      "name": "BHADAS SUB CENTER",
      "district_name": "Nuh",
      "state_name": "Haryana",
      "location": "BHADAS SUB CENTER",
      "pincode": "122508",
      "block_name": "Ferozepur Jhirka",
      "lat": "27.94150723",
      "long": "77.00839871"
    },
    {
      "center_id": 617167,
      "name": "Bai PHC - 1",
      "district_name": "Nuh",
      "state_name": "Haryana",
      "location": "Bai PHC Nuh To Meoli Road",
      "pincode": "122107",
      "block_name": "Nuh",
      "lat": "28.03849480",
      "long": "77.05644200"
    },
    {
      "center_id": 627462,
      "name": "Sangil Sub Center",
      "district_name": "Nuh",
      "state_name": "Haryana",
      "location": "Sangil Sub Center",
      "pincode": "122107",
      "block_name": "Nuh",
      "lat": "28.00839241",
      "long": "77.07829696"
    },
    {
      "center_id": 11859,
      "name": "Dochana CHC",
      "district_name": "Mahendragarh",
      "state_name": "Haryana",
      "location": "Near Vetnary Hospital Badopur Simla Road Dochana",
      "pincode": "123001",
      "block_name": "Dochana",
      "lat": "28.06965100",
      "long": "76.99479900"
    },
    {
      "center_id": 628419,
      "name": "Badarpur Sub Center",
      "district_name": "Nuh",
      "state_name": "Haryana",
      "location": "Badarpur Sub Center",
      "pincode": "122108",
      "block_name": "Ferozepur Jhirka",
      "lat": "27.94486256",
      "long": "77.04993004"
    },
    {
      "center_id": 604205,
      "name": "Eye-Q Vision Pvt. Ltd Sec 46",
      "district_name": "Gurgaon",
      "state_name": "Haryana",
      "location": "Nursing Home- 1, Sector-46, Opp HUDA Market, Gurgaon",
      "pincode": "122003",
      "block_name": "Farukhnagar",
      "lat": "28.06000000",
      "long": "77.05000000"
    },
    {
      "center_id": 628598,
      "name": "Marora Backlog Data",
      "district_name": "Nuh",
      "state_name": "Haryana",
      "location": "Marora Backlog Data",
      "pincode": "122107",
      "block_name": "Nuh",
      "lat": "28.07471385",
      "long": "77.01312385"
    },
    {
      "center_id": 628405,
      "name": "Hawanagar Sub Center",
      "district_name": "Nuh",
      "state_name": "Haryana",
      "location": "Hawanagar Sub Center",
      "pincode": "122108",
      "block_name": "Ferozepur Jhirka",
      "lat": "27.92456852",
      "long": "77.03130487"
    },
    {
      "center_id": 616514,
      "name": "Nagina PHC Backlog Data",
      "district_name": "Nuh",
      "state_name": "Haryana",
      "location": "Nagina PHC Delhi Alwar Main Roade",
      "pincode": "122108",
      "block_name": "Ferozepur Jhirka",
      "lat": "27.91790000",
      "long": "76.98520000"
    },
    {
      "center_id": 616519,
      "name": "Nagina PHC - 18",
      "district_name": "Nuh",
      "state_name": "Haryana",
      "location": "Nagina PHC Delhi Alwar Main Road",
      "pincode": "122108",
      "block_name": "Ferozepur Jhirka",
      "lat": "27.91746000",
      "long": "76.98573000"
    },
    {
      "center_id": 629281,
      "name": "Sangel Sub Center",
      "district_name": "Nuh",
      "state_name": "Haryana",
      "location": "Sangel Sub Center",
      "pincode": "122107",
      "block_name": "Nuh",
      "lat": "28.05030000",
      "long": "77.07785000"
    },
    {
      "center_id": 613705,
      "name": "UJINA PHC -18 PLUS",
      "district_name": "Nuh",
      "state_name": "Haryana",
      "location": "UJINA PHC NEAR MANDIR",
      "pincode": "122107",
      "block_name": "Nuh",
      "lat": "28.04460000",
      "long": "77.08250000"
    },
    {
      "center_id": 629293,
      "name": "ADBAR SUB CENTER",
      "district_name": "Nuh",
      "state_name": "Haryana",
      "location": "ADBAR SUB CENTER",
      "pincode": "122107",
      "block_name": "Nuh",
      "lat": "28.08147295",
      "long": "77.03626217"
    }
  ],
  "ttl": 24
}
